[{"OBJECT_NAME":"SKYKRAFT-1A","OBJECT_ID":"2023-001AX","EPOCH":"2026-03-09T17:03:19.828224","MEAN_MOTION":15.28083228,"ECCENTRICITY":0.00112767,"INCLINATION":97.3349,"RA_OF_ASC_NODE":127.629,"ARG_OF_PERICENTER":121.5092,"MEAN_ANOMALY":238.7251,"EPHEMERIS_TYPE":0,"CLASSIFICATION_TYPE":"U","NORAD_CAT_ID":55054,"ELEMENT_SET_NO":999,"REV_AT_EPOCH":17652,"BSTAR":0.0003006872,"MEAN_MOTION_DOT":8.177e-5,"MEAN_MOTION_DDOT":0},{"OBJECT_NAME":"STARLINK-35825","OBJECT_ID":"2025-268L","EPOCH":"2026-03-09T02:30:48.731616","MEAN_MOTION":15.27596711,"ECCENTRICITY":0.0001091,"INCLINATION":43.0016,"RA_OF_ASC_NODE":350.0796,"ARG_OF_PERICENTER":266.9898,"MEAN_ANOMALY":93.0829,"EPHEMERIS_TYPE":0,"CLASSIFICATION_TYPE":"U","NORAD_CAT_ID":66567,"ELEMENT_SET_NO":999,"REV_AT_EPOCH":1787,"BSTAR":0.0011338233,"MEAN_MOTION_DOT":0.00031086,"MEAN_MOTION_DDOT":0}]
